COMMENT,ORIGINATOR,NORAD_CAT_ID,OBJECT_NAME,OBJECT_TYPE,CLASSIFICATION_TYPE,INTLDES,EPOCH,EPOCH_MICROSECONDS,MEAN_MOTION,ECCENTRICITY,INCLINATION,RA_OF_ASC_NODE,ARG_OF_PERICENTER,MEAN_ANOMALY,EPHEMERIS_TYPE,ELEMENT_SET_NO,REV_AT_EPOCH,BSTAR,MEAN_MOTION_DOT,MEAN_MOTION_DDOT,FILE,TLE_LINE0,TLE_LINE1,TLE_LINE2,OBJECT_ID,OBJECT_NUMBER,SEMIMAJOR_AXIS,PERIOD,APOGEE,PERIGEE,DECAYED
"GENERATED VIA SPACETRACK.ORG API","18 SPCS","48893","SPACEBEE-106","PAYLOAD","U","21059Q","2023-05-20 14:50:43","213344","15.29745797","0.0006143","97.5939","277.0295","17.2053","342.9394","0","999","10517","0.001279","0.00036934","0","3913175","0 SPACEBEE-106","1 48893U 21059Q   23140.61855571  .00036934  00000-0  12790-2 0  9993","2 48893  97.5939 277.0295 0006143  17.2053 342.9394 15.29745797105174","2021-059Q","48893","6854.709","94.133","480.784","472.363","0"
"GENERATED VIA SPACETRACK.ORG API","18 SPCS","48893","SPACEBEE-106","PAYLOAD","U","21059Q","2023-05-21 08:06:49","806144","15.29797271","0.0006131","97.5943","277.7647","14.0511","346.0899","0","999","10528","0.001096","0.00031666","0","3913738","0 SPACEBEE-106","1 48893U 21059Q   23141.33807646  .00031666  00000-0  10960-2 0  9997","2 48893  97.5943 277.7647 0006131  14.0511 346.0899 15.29797271105289","2021-059Q","48893","6854.555","94.130","480.622","472.217","0"
"GENERATED VIA SPACETRACK.ORG API","18 SPCS","48893","SPACEBEE-106","PAYLOAD","U","21059Q","2023-05-21 15:57:46","778400","15.29815326","0.0006073","97.5944","278.0986","12.8204","347.3189","0","999","10533","0.0010156","0.00029345","0","3913856","0 SPACEBEE-106","1 48893U 21059Q   23141.66512475  .00029345  00000-0  10156-2 0  9994","2 48893  97.5944 278.0986 0006073  12.8204 347.3189 15.29815326105334","2021-059Q","48893","6854.501","94.129","480.529","472.203","0"
"GENERATED VIA SPACETRACK.ORG API","18 SPCS","48893","SPACEBEE-106","PAYLOAD","U","21059Q","2023-05-21 19:06:09","449280","15.29826504","0.0006052","97.5944","278.2322","12.285","347.8537","0","999","10535","0.0011193","0.00032373","0","3914061","0 SPACEBEE-106","1 48893U 21059Q   23141.79594270  .00032373  00000-0  11193-2 0  9998","2 48893  97.5944 278.2322 0006052  12.2850 347.8537 15.29826504105352","2021-059Q","48893","6854.467","94.128","480.481","472.184","0"
"GENERATED VIA SPACETRACK.ORG API","18 SPCS","48893","SPACEBEE-106","PAYLOAD","U","21059Q","2023-05-22 07:39:39","548736","15.29863014","0.000606","97.5943","278.7672","10.3105","349.8258","0","999","10543","0.0012986","0.0003764","0","3914693","0 SPACEBEE-106","1 48893U 21059Q   23142.31920774  .00037640  00000-0  12986-2 0  9992","2 48893  97.5943 278.7672 0006060  10.3105 349.8258 15.29863014105433","2021-059Q","48893","6854.358","94.126","480.377","472.070","0"
"GENERATED VIA SPACETRACK.ORG API","18 SPCS","48893","SPACEBEE-106","PAYLOAD","U","21059Q","2023-05-22 07:39:39","548736","15.29863014","0.000606","97.5943","278.7672","10.3105","349.8258","0","999","10543","0.0012986","0.0003764","0","3914804","0 SPACEBEE-106","1 48893U 21059Q   23142.31920774  .00037640  00000-0  12986-2 0  9992","2 48893  97.5943 278.7672 0006060  10.3105 349.8258 15.29863014105433","2021-059Q","48893","6854.358","94.126","480.377","472.070","0"
"GENERATED VIA SPACETRACK.ORG API","18 SPCS","48893","SPACEBEE-106","PAYLOAD","U","21059Q","2023-05-22 20:13:08","699520","15.29890449","0.0006027","97.5946","279.3019","8.638","351.4962","0","999","10551","0.0010209","0.00029567","0","3914964","0 SPACEBEE-106","1 48893U 21059Q   23142.84246180  .00029567  00000-0  10209-2 0  9997","2 48893  97.5946 279.3019 0006027   8.6380 351.4962 15.29890449105518","2021-059Q","48893","6854.276","94.124","480.273","472.010","0"
"GENERATED VIA SPACETRACK.ORG API","18 SPCS","48893","SPACEBEE-106","PAYLOAD","U","21059Q","2023-05-22 20:13:08","699520","15.29890449","0.0006027","97.5946","279.3019","8.638","351.4962","0","999","10551","0.0010209","0.00029567","0","3915073","0 SPACEBEE-106","1 48893U 21059Q   23142.84246180  .00029567  00000-0  10209-2 0  9997","2 48893  97.5946 279.3019 0006027   8.6380 351.4962 15.29890449105518","2021-059Q","48893","6854.276","94.124","480.273","472.010","0"
"GENERATED VIA SPACETRACK.ORG API","18 SPCS","48893","SPACEBEE-106","PAYLOAD","U","21059Q","2023-05-23 08:46:36","948288","15.29921225","0.0006011","97.5945","279.8366","6.6396","353.4923","0","999","10559","0.0010588","0.00030701","0","3915766","0 SPACEBEE-106","1 48893U 21059Q   23143.36570542  .00030701  00000-0  10588-2 0  9999","2 48893  97.5945 279.8366 0006011   6.6396 353.4923 15.29921225105599","2021-059Q","48893","6854.185","94.122","480.170","471.930","0"
"GENERATED VIA SPACETRACK.ORG API","18 SPCS","48893","SPACEBEE-106","PAYLOAD","U","21059Q","2023-05-24 08:19:20","179776","15.2996914","0.0005968","97.5945","280.8393","2.2773","357.8493","0","999","10574","0.00086119","0.00024974","0","3916162","0 SPACEBEE-106","1 48893U 21059Q   23144.34676134  .00024974  00000-0  86119-3 0  9991","2 48893  97.5945 280.8393 0005968   2.2773 357.8493 15.29969140105747","2021-059Q","48893","6854.041","94.120","479.997","471.816","0"
"GENERATED VIA SPACETRACK.ORG API","18 SPCS","48893","SPACEBEE-106","PAYLOAD","U","21059Q","2023-05-24 14:36:03","245760","15.29982311","0.0005917","97.5946","281.1063","0.9242","359.2008","0","999","10578","0.00088577","0.00025702","0","3916549","0 SPACEBEE-106","1 48893U 21059Q   23144.60837090  .00025702  00000-0  88577-3 0  9990","2 48893  97.5946 281.1063 0005917   0.9242 359.2008 15.29982311105783","2021-059Q","48893","6854.002","94.119","479.923","471.812","0"
"GENERATED VIA SPACETRACK.ORG API","18 SPCS","48893","SPACEBEE-106","PAYLOAD","U","21059Q","2023-05-25 21:59:35","644128","15.30049248","0.0005857","97.5946","282.4434","356.1182","4.0012","0","999","10598","0.0008506","0.00024726","0","3917122","0 SPACEBEE-106","1 48893U 21059Q   23145.91638477  .00024726  00000-0  85060-3 0  9992","2 48893  97.5946 282.4434 0005857 356.1182   4.0012 15.30049248105988","2021-059Q","48893","6853.802","94.115","479.681","471.653","0"
"GENERATED VIA SPACETRACK.ORG API","18 SPCS","48893","SPACEBEE-106","PAYLOAD","U","21059Q","2023-05-25 21:59:35","644128","15.30049248","0.0005857","97.5946","282.4434","356.1182","4.0012","0","999","10598","0.0008506","0.00024726","0","3917283","0 SPACEBEE-106","1 48893U 21059Q   23145.91638477  .00024726  00000-0  85060-3 0  9992","2 48893  97.5946 282.4434 0005857 356.1182   4.0012 15.30049248105988","2021-059Q","48893","6853.802","94.115","479.681","471.653","0"
"GENERATED VIA SPACETRACK.ORG API","18 SPCS","48893","SPACEBEE-106","PAYLOAD","U","21059Q","2023-05-26 08:58:48","849600","15.30070536","0.0005924","97.5946","282.9113","354.5321","5.5854","0","999","10605","0.00078939","0.00022951","0","3917630","0 SPACEBEE-106","1 48893U 21059Q   23146.37417650  .00022951  00000-0  78939-3 0  9996","2 48893  97.5946 282.9113 0005924 354.5321   5.5854 15.30070536106052","2021-059Q","48893","6853.739","94.113","479.664","471.543","0"
"GENERATED VIA SPACETRACK.ORG API","18 SPCS","48893","SPACEBEE-106","PAYLOAD","U","21059Q","2023-05-26 21:32:11","844384","15.30093515","0.000583","97.5945","283.4459","352.4385","7.6766","0","999","10613","0.00071987","0.00020932","0","3917850","0 SPACEBEE-106","1 48893U 21059Q   23146.89735931  .00020932  00000-0  71987-3 0  9991","2 48893  97.5945 283.4459 0005830 352.4385   7.6766 15.30093515106139","2021-059Q","48893","6853.670","94.112","479.531","471.539","0"
"GENERATED VIA SPACETRACK.ORG API","18 SPCS","48893","SPACEBEE-106","PAYLOAD","U","21059Q","2023-05-27 08:31:23","930112","15.3011152","0.0005853","97.5944","283.914","350.497","9.6158","0","999","10620","0.0006785","0.00019732","0","3918308","0 SPACEBEE-106","1 48893U 21059Q   23147.35513808  .00019732  00000-0  67850-3 0  9990","2 48893  97.5944 283.9140 0005853 350.4970   9.6158 15.30111520106205","2021-059Q","48893","6853.616","94.111","479.493","471.470","0"
"GENERATED VIA SPACETRACK.ORG API","18 SPCS","48893","SPACEBEE-106","PAYLOAD","U","21059Q","2023-05-27 21:04:45","743808","15.30133724","0.0005792","97.5943","284.4487","348.1989","11.9114","0","999","10628","0.00070538","0.00020533","0","3918755","0 SPACEBEE-106","1 48893U 21059Q   23147.87830722  .00020533  00000-0  70538-3 0  9992","2 48893  97.5943 284.4487 0005792 348.1989  11.9114 15.30133724106286","2021-059Q","48893","6853.550","94.109","479.385","471.445","0"
"GENERATED VIA SPACETRACK.ORG API","18 SPCS","48893","SPACEBEE-106","PAYLOAD","U","21059Q","2023-05-27 22:38:55","929696","15.30136244","0.0005792","97.5943","284.5156","348.0088","12.1013","0","999","10629","0.00071664","0.00020865","0","3919252","0 SPACEBEE-106","1 48893U 21059Q   23147.94370289  .00020865  00000-0  71664-3 0  9996","2 48893  97.5943 284.5156 0005792 348.0088  12.1013 15.30136244106291","2021-059Q","48893","6853.542","94.109","479.377","471.438","0"
"GENERATED VIA SPACETRACK.ORG API","18 SPCS","48893","SPACEBEE-106","PAYLOAD","U","21059Q","2023-05-28 08:03:56","781504","15.30157003","0.0005823","97.5942","284.9164","346.4344","13.6738","0","999","10635","0.00090522","0.00026412","0","3919371","0 SPACEBEE-106","1 48893U 21059Q   23148.33607386  .00026412  00000-0  90522-3 0  9999","2 48893  97.5942 284.9164 0005823 346.4344  13.6738 15.30157003106358","2021-059Q","48893","6853.480","94.108","479.336","471.355","0"
"GENERATED VIA SPACETRACK.ORG API","18 SPCS","48893","SPACEBEE-106","PAYLOAD","U","21059Q","2023-05-28 20:37:17","192928","15.30183978","0.0005752","97.5943","285.4511","344.21","15.8959","0","999","10643","0.00090083","0.00026305","0","3919546","0 SPACEBEE-106","1 48893U 21059Q   23148.85922677  .00026305  00000-0  90083-3 0  9992","2 48893  97.5943 285.4511 0005752 344.2100  15.8959 15.30183978106436","2021-059Q","48893","6853.400","94.106","479.207","471.323","0"
